NORAD_CAT_ID,OBJECT_NAME,OBJECT_TYPE,EPOCH,MEAN_MOTION,ECCENTRICITY,INCLINATION,RA_OF_ASC_NODE,ARG_OF_PERICENTER,MEAN_ANOMALY,BSTAR,MEAN_MOTION_DOT,MEAN_MOTION_DDOT,TLE_LINE0,TLE_LINE1,TLE_LINE2,SEMIMAJOR_AXIS,PERIOD,APOGEE,PERIGEE,DECAYED
56481.0,STARLINK-6222,PAYLOAD,2024-04-30 11:41:18,14.98331337,0.000282,70.0009,34.3461,271.5514,88.5322,5.3403e-05,5.44e-06,0.0,0 STARLINK-6222,1 56481U 23064AK  24121.48701618  .00000544  00000-0  53403-4 0  9996,2 56481  70.0009  34.3461 0002820 271.5514  88.5322 14.98331337 54515,6950.189,96.107,574.014,570.094,0.0
56481.0,STARLINK-6222,PAYLOAD,2024-04-30 21:18:07,14.9832221,0.0002794,70.0008,33.3352,271.2759,88.808,8.4703e-05,9.18e-06,0.0,0 STARLINK-6222,1 56481U 23064AK  24121.88758128  .00000918  00000-0  84703-4 0  9990,2 56481  70.0008  33.3352 0002794 271.2759  88.8080 14.98322210 54570,6950.217,96.107,574.024,570.14,0.0
56481.0,STARLINK-6222,PAYLOAD,2024-04-30 22:54:14,14.98329741,0.0002763,70.0012,33.1678,269.153,90.9313,-7.6769e-06,-1.85e-06,0.0,0 STARLINK-6222,1 56481U 23064AK  24121.95433845 -.00000185  00000-0 -76769-5 0  9996,2 56481  70.0012  33.1678 0002763 269.1530  90.9313 14.98329741 54224,6950.194,96.107,573.979,570.138,0.0
56481.0,STARLINK-6222,PAYLOAD,2024-05-01 03:42:38,14.98331128,0.0002925,70.0012,32.6628,272.3096,87.7729,-1.2101e-06,-1.07e-06,0.0,0 STARLINK-6222,1 56481U 23064AK  24122.15461724 -.00000107  00000-0 -12101-5 0  9990,2 56481  70.0012  32.6628 0002925 272.3096  87.7729 14.98331128 54616,6950.189,96.107,574.087,570.021,0.0
56481.0,STARLINK-6222,PAYLOAD,2024-05-01 11:43:18,14.98335872,0.0002823,70.0008,31.8205,270.2952,89.7883,-1.7635e-05,-3.03e-06,0.0,0 STARLINK-6222,1 56481U 23064AK  24122.48841334 -.00000303  00000-0 -17635-4 0  9999,2 56481  70.0008  31.8205 0002823 270.2952  89.7883 14.98335872 54666,6950.175,96.107,574.002,570.078,0.0
56481.0,STARLINK-6222,PAYLOAD,2024-05-02 03:44:38,14.98341256,0.0002898,70.0007,30.1375,271.2761,88.8066,3.7531e-06,-4.8e-07,0.0,0 STARLINK-6222,1 56481U 23064AK  24123.15600570 -.00000048  00000-0  37531-5 0  9992,2 56481  70.0007  30.1375 0002898 271.2761  88.8066 14.98341256 54763,6950.158,96.106,574.037,570.009,0.0
56481.0,STARLINK-6222,PAYLOAD,2024-05-02 21:22:08,14.98327311,0.0002858,70.0008,28.2858,271.5707,88.5125,-8.69e-06,-1.97e-06,0.0,0 STARLINK-6222,1 56481U 23064AK  24123.89037332 -.00000197  00000-0 -86900-5 0  9993,2 56481  70.0008  28.2858 0002858 271.5707  88.5125 14.98327311 54878,6950.201,96.107,574.053,570.08,0.0
56481.0,STARLINK-6222,PAYLOAD,2024-05-03 03:46:39,14.98337137,0.000285,70.0008,27.6127,269.4731,90.6102,4.7999e-05,4.8e-06,0.0,0 STARLINK-6222,1 56481U 23064AK  24124.15740475  .00000480  00000-0  47999-4 0  9999,2 56481  70.0008  27.6127 0002850 269.4731  90.6102 14.98337137 54916,6950.171,96.107,574.017,570.055,0.0
56481.0,STARLINK-6222,PAYLOAD,2024-05-03 21:24:09,14.98327008,0.0002847,70.0016,25.762,267.8933,92.19,-7.3456e-05,-9.69e-06,0.0,0 STARLINK-6222,1 56481U 23064AK  24124.89177316 -.00000969  00000-0 -73456-4 0  9999,2 56481  70.0016  25.7620 0002847 267.8933  92.1900 14.98327008 55026,6950.202,96.107,574.046,570.088,0.0
56481.0,STARLINK-6222,PAYLOAD,2024-05-04 03:48:41,14.98367416,0.0002747,70.0016,25.0887,263.8848,96.1999,-0.00075925,-9.149e-05,0.0,0 STARLINK-6222,1 56481U 23064AK  24125.15880969 -.00009149  00000-0 -75925-3 0  9995,2 56481  70.0016  25.0887 0002747 263.8848  96.1999 14.98367416 55067,6950.077,96.105,573.851,570.033,0.0
56481.0,STARLINK-6222,PAYLOAD,2024-05-04 10:13:13,14.98335591,0.0002606,70.0016,24.4154,267.5115,92.5746,-0.00023291,-2.871e-05,0.0,0 STARLINK-6222,1 56481U 23064AK  24125.42585294 -.00002871  00000-0 -23291-3 0  9992,2 56481  70.0016  24.4154 0002606 267.5115  92.5746 14.98335591 55103,6950.176,96.107,573.852,570.229,0.0
56481.0,STARLINK-6222,PAYLOAD,2024-05-04 21:26:10,14.98330224,0.0002708,70.0011,23.2364,265.1228,94.9622,-2.6462e-05,-4.09e-06,0.0,0 STARLINK-6222,1 56481U 23064AK  24125.89317166 -.00000409  00000-0 -26462-4 0  9993,2 56481  70.0011  23.2364 0002708 265.1228  94.9622 14.98330224 55174,6950.192,96.107,573.939,570.175,0.0
56481.0,STARLINK-6222,PAYLOAD,2024-05-05 03:50:42,14.98330614,0.0002803,70.0008,22.5627,269.5654,90.5183,-1.5467e-05,-2.78e-06,0.0,0 STARLINK-6222,1 56481U 23064AK  24126.16021131 -.00000278  00000-0 -15467-4 0  9995,2 56481  70.0008  22.5627 0002803 269.5654  90.5183 14.98330614 55213,6950.191,96.107,574.004,570.108,0.0
56481.0,STARLINK-6222,PAYLOAD,2024-05-05 21:28:11,14.98326782,0.000285,70.0006,20.7114,270.4587,89.6246,4.0643e-05,3.92e-06,0.0,0 STARLINK-6222,1 56481U 23064AK  24126.89457265  .00000392  00000-0  40643-4 0  9995,2 56481  70.0006  20.7114 0002850 270.4587  89.6246 14.98326782 55322,6950.203,96.107,574.049,570.087,0.0
56481.0,STARLINK-6222,PAYLOAD,2024-05-05 23:04:18,14.98329035,0.0002808,70.0007,20.5431,269.2937,90.7901,6.7466e-05,7.12e-06,0.0,0 STARLINK-6222,1 56481U 23064AK  24126.96133047  .00000712  00000-0  67466-4 0  9990,2 56481  70.0007  20.5431 0002808 269.2937  90.7901 14.98329035 54976,6950.196,96.107,574.012,570.109,0.0
56481.0,STARLINK-6222,PAYLOAD,2024-05-06 02:16:35,14.98328961,0.0002805,70.0006,20.2064,268.9892,91.0946,6.4046e-05,6.71e-06,0.0,0 STARLINK-6222,1 56481U 23064AK  24127.09485067  .00000671  00000-0  64046-4 0  9992,2 56481  70.0006  20.2064 0002805 268.9892  91.0946 14.98328961 55350,6950.196,96.107,574.011,570.112,0.0
56481.0,STARLINK-6222,PAYLOAD,2024-05-06 10:17:15,14.98328907,0.0002858,70.0005,19.3648,270.2427,89.8405,3.5622e-05,3.32e-06,0.0,0 STARLINK-6222,1 56481U 23064AK  24127.42865150  .00000332  00000-0  35622-4 0  9996,2 56481  70.0005  19.3648 0002858 270.2427  89.8405 14.98328907 55405,6950.196,96.107,574.048,570.075,0.0
56481.0,STARLINK-6222,PAYLOAD,2024-05-06 21:30:11,14.98331409,0.0002882,70.0004,18.1866,270.3098,89.773,4.8944e-05,4.91e-06,0.0,0 STARLINK-6222,1 56481U 23064AK  24127.89596907  .00000491  00000-0  48944-4 0  9995,2 56481  70.0004  18.1866 0002882 270.3098  89.7730 14.98331409 55473,6950.189,96.107,574.057,570.05,0.0
56481.0,STARLINK-6222,PAYLOAD,2024-05-07 02:18:35,14.98334655,0.0002893,70.0003,17.6813,269.9024,90.1803,5.296e-05,5.39e-06,0.0,0 STARLINK-6222,1 56481U 23064AK  24128.09624640  .00000539  00000-0  52960-4 0  9990,2 56481  70.0003  17.6813 0002893 269.9024  90.1803 14.98334655 55500,6950.178,96.107,574.054,570.033,0.0
56481.0,STARLINK-6222,PAYLOAD,2024-05-07 10:19:16,14.98329513,0.0002861,70.0006,16.8381,268.9118,91.1713,-4.7711e-05,-6.62e-06,0.0,0 STARLINK-6222,1 56481U 23064AK  24128.43005152 -.00000662  00000-0 -47711-4 0  9996,2 56481  70.0006  16.8381 0002861 268.9118  91.1713 14.98329513 55555,6950.194,96.107,574.048,570.071,0.0
56481.0,STARLINK-6222,PAYLOAD,2024-05-07 19:56:05,14.98325784,0.0002942,69.9999,15.8288,269.1883,90.8939,-9.1765e-05,-1.188e-05,0.0,0 STARLINK-6222,1 56481U 23064AK  24128.83061578 -.00001188  00000-0 -91765-4 0  9996,2 56481  69.9999  15.8288 0002942 269.1883  90.8939 14.98325784 55619,6950.206,96.107,574.116,570.026,0.0
56481.0,STARLINK-6222,PAYLOAD,2024-05-07 21:32:13,14.98325324,0.0002952,70.0,15.6604,269.1857,90.8964,-9.5793e-05,-1.236e-05,0.0,0 STARLINK-6222,1 56481U 23064AK  24128.89737632 -.00001236  00000-0 -95793-4 0  9992,2 56481  70.0000  15.6604 0002952 269.1857  90.8964 14.98325324 55266,6950.207,96.107,574.124,570.021,0.0
56481.0,STARLINK-6222,PAYLOAD,2024-05-08 02:20:37,14.98321528,0.0002873,70.0002,15.1555,268.2961,91.7869,9.6939e-06,2.3e-07,0.0,0 STARLINK-6222,1 56481U 23064AK  24129.09765658  .00000023  00000-0  96939-5 0  9999,2 56481  70.0002  15.1555 0002873 268.2961  91.7869 14.98321528 55655,6950.219,96.108,574.081,570.087,0.0
56481.0,STARLINK-6222,PAYLOAD,2024-05-08 21:34:13,14.98331238,0.0002947,70.0007,13.1361,271.5492,88.533,-1.1217e-05,-2.27e-06,0.0,0 STARLINK-6222,1 56481U 23064AK  24129.89877120 -.00000227  00000-0 -11217-4 0  9998,2 56481  70.0007  13.1361 0002947 271.5492  88.5330 14.98331238 55770,6950.189,96.107,574.102,570.006,0.0
56481.0,STARLINK-6222,PAYLOAD,2024-05-09 02:22:37,14.98328968,0.000287,70.0006,12.6312,270.2966,89.7864,0.000142,1.602e-05,0.0,0 STARLINK-6222,1 56481U 23064AK  24130.09904831  .00001602  00000-0  14200-3 0  9992,2 56481  70.0006  12.6312 0002870 270.2966  89.7864 14.98328968 55801,6950.196,96.107,574.056,570.066,0.0
56481.0,STARLINK-6222,PAYLOAD,2024-05-09 20:00:06,14.98326636,0.0002969,70.0005,10.7795,272.6391,87.4428,7.2709e-05,7.75e-06,0.0,0 STARLINK-6222,1 56481U 23064AK  24130.83341082  .00000775  00000-0  72709-4 0  9996,2 56481  70.0005  10.7795 0002969 272.6391  87.4428 14.98326636 55914,6950.203,96.107,574.132,570.005,0.0
56481.0,STARLINK-6222,PAYLOAD,2024-05-09 21:36:14,14.98327804,0.0002859,70.0009,10.6127,270.5149,89.5682,8.1765e-05,8.83e-06,0.0,0 STARLINK-6222,1 56481U 23064AK  24130.90017056  .00000883  00000-0  81765-4 0  9997,2 56481  70.0009  10.6127 0002859 270.5149  89.5682 14.98327804 55566,6950.2,96.107,574.052,570.078,0.0
56481.0,STARLINK-6222,PAYLOAD,2024-05-10 02:24:38,14.98330407,0.0002797,70.0009,10.1079,267.676,92.4078,0.00012596,1.41e-05,0.0,0 STARLINK-6222,1 56481U 23064AK  24131.10044745  .00001410  00000-0  12596-3 0  9997,2 56481  70.0009  10.1079 0002797 267.6760  92.4078 14.98330407 55952,6950.192,96.107,574.001,570.113,0.0
56481.0,STARLINK-6222,PAYLOAD,2024-05-10 08:49:11,14.98328308,0.0002673,70.0013,9.4322,277.8827,82.2028,3.6051e-05,3.37e-06,0.0,0 STARLINK-6222,1 56481U 23064AK  24131.36749103  .00000337  00000-0  36051-4 0  9995,2 56481  70.0013   9.4322 0002673 277.8827  82.2028 14.98328308 55992,6950.198,96.107,573.921,570.205,0.0
56481.0,STARLINK-6222,PAYLOAD,2024-05-10 18:25:59,14.98328867,0.0002789,70.0012,8.4232,272.4277,87.6562,5.3892e-07,-8.7e-07,0.0,0 STARLINK-6222,1 56481U 23064AK  24131.76805110 -.00000087  00000-0  53892-6 0  9997,2 56481  70.0012   8.4232 0002789 272.4277  87.6562 14.98328867 56058,6950.196,96.107,574.0,570.123,0.0
